<?xml version="1.0" encoding="UTF-8"?>
<ndm xmlns:xsi="http://www.w3.org/2001/XMLSchema-instance" xsi:noNamespaceSchemaLocation="https://sanaregistry.org/r/ndmxml_unqualified/ndmxml-2.0.0-master-2.0.xsd">
<omm id="CCSDS_OMM_VERS" version="2.0">
<header><CREATION_DATE/><ORIGINATOR/></header><body><segment><metadata><OBJECT_NAME>ORBCOMM-X</OBJECT_NAME><OBJECT_ID>1991-050C</OBJECT_ID><CENTER_NAME>EARTH</CENTER_NAME><REF_FRAME>TEME</REF_FRAME><TIME_SYSTEM>UTC</TIME_SYSTEM><MEAN_ELEMENT_THEORY>SGP4</MEAN_ELEMENT_THEORY></metadata><data><meanElements><EPOCH>2025-03-26T16:00:31.364352</EPOCH><MEAN_MOTION>14.43166137</MEAN_MOTION><ECCENTRICITY>.0004828</ECCENTRICITY><INCLINATION>98.3507</INCLINATION><RA_OF_ASC_NODE>153.9235</RA_OF_ASC_NODE><ARG_OF_PERICENTER>81.8660</ARG_OF_PERICENTER><MEAN_ANOMALY>278.3078</MEAN_ANOMALY></meanElements><tleParameters><EPHEMERIS_TYPE>0</EPHEMERIS_TYPE><CLASSIFICATION_TYPE>U</CLASSIFICATION_TYPE><NORAD_CAT_ID>21576</NORAD_CAT_ID><ELEMENT_SET_NO>999</ELEMENT_SET_NO><REV_AT_EPOCH>77021</REV_AT_EPOCH><BSTAR>.35643E-3</BSTAR><MEAN_MOTION_DOT>.1155E-4</MEAN_MOTION_DOT><MEAN_MOTION_DDOT>0</MEAN_MOTION_DDOT></tleParameters></data></segment></body></omm>
<omm id="CCSDS_OMM_VERS" version="2.0">
<header><CREATION_DATE/><ORIGINATOR/></header><body><segment><metadata><OBJECT_NAME>ORBCOMM FM01</OBJECT_NAME><OBJECT_ID>1995-017A</OBJECT_ID><CENTER_NAME>EARTH</CENTER_NAME><REF_FRAME>TEME</REF_FRAME><TIME_SYSTEM>UTC</TIME_SYSTEM><MEAN_ELEMENT_THEORY>SGP4</MEAN_ELEMENT_THEORY></metadata><data><meanElements><EPOCH>2025-03-26T19:13:52.724352</EPOCH><MEAN_MOTION>14.88665412</MEAN_MOTION><ECCENTRICITY>.0000981</ECCENTRICITY><INCLINATION>69.9625</INCLINATION><RA_OF_ASC_NODE>279.3917</RA_OF_ASC_NODE><ARG_OF_PERICENTER>160.6771</ARG_OF_PERICENTER><MEAN_ANOMALY>199.4420</MEAN_ANOMALY></meanElements><tleParameters><EPHEMERIS_TYPE>0</EPHEMERIS_TYPE><CLASSIFICATION_TYPE>U</CLASSIFICATION_TYPE><NORAD_CAT_ID>23545</NORAD_CAT_ID><ELEMENT_SET_NO>999</ELEMENT_SET_NO><REV_AT_EPOCH>60024</REV_AT_EPOCH><BSTAR>.17225E-2</BSTAR><MEAN_MOTION_DOT>.1605E-3</MEAN_MOTION_DOT><MEAN_MOTION_DDOT>0</MEAN_MOTION_DDOT></tleParameters></data></segment></body></omm>
<omm id="CCSDS_OMM_VERS" version="2.0">
<header><CREATION_DATE/><ORIGINATOR/></header><body><segment><metadata><OBJECT_NAME>ORBCOMM FM02</OBJECT_NAME><OBJECT_ID>1995-017B</OBJECT_ID><CENTER_NAME>EARTH</CENTER_NAME><REF_FRAME>TEME</REF_FRAME><TIME_SYSTEM>UTC</TIME_SYSTEM><MEAN_ELEMENT_THEORY>SGP4</MEAN_ELEMENT_THEORY></metadata><data><meanElements><EPOCH>2025-03-26T20:25:49.385856</EPOCH><MEAN_MOTION>14.89201984</MEAN_MOTION><ECCENTRICITY>.0001948</ECCENTRICITY><INCLINATION>69.9651</INCLINATION><RA_OF_ASC_NODE>298.8779</RA_OF_ASC_NODE><ARG_OF_PERICENTER>118.7090</ARG_OF_PERICENTER><MEAN_ANOMALY>241.4260</MEAN_ANOMALY></meanElements><tleParameters><EPHEMERIS_TYPE>0</EPHEMERIS_TYPE><CLASSIFICATION_TYPE>U</CLASSIFICATION_TYPE><NORAD_CAT_ID>23546</NORAD_CAT_ID><ELEMENT_SET_NO>999</ELEMENT_SET_NO><REV_AT_EPOCH>59989</REV_AT_EPOCH><BSTAR>.24776E-2</BSTAR><MEAN_MOTION_DOT>.23459E-3</MEAN_MOTION_DOT><MEAN_MOTION_DDOT>0</MEAN_MOTION_DDOT></tleParameters></data></segment></body></omm>
<omm id="CCSDS_OMM_VERS" version="2.0">
<header><CREATION_DATE/><ORIGINATOR/></header><body><segment><metadata><OBJECT_NAME>ORBCOMM FM08</OBJECT_NAME><OBJECT_ID>1997-084A</OBJECT_ID><CENTER_NAME>EARTH</CENTER_NAME><REF_FRAME>TEME</REF_FRAME><TIME_SYSTEM>UTC</TIME_SYSTEM><MEAN_ELEMENT_THEORY>SGP4</MEAN_ELEMENT_THEORY></metadata><data><meanElements><EPOCH>2025-03-26T21:01:57.518688</EPOCH><MEAN_MOTION>14.45420159</MEAN_MOTION><ECCENTRICITY>.0005357</ECCENTRICITY><INCLINATION>45.0139</INCLINATION><RA_OF_ASC_NODE>42.8936</RA_OF_ASC_NODE><ARG_OF_PERICENTER>208.0437</ARG_OF_PERICENTER><MEAN_ANOMALY>152.0127</MEAN_ANOMALY></meanElements><tleParameters><EPHEMERIS_TYPE>0</EPHEMERIS_TYPE><CLASSIFICATION_TYPE>U</CLASSIFICATION_TYPE><NORAD_CAT_ID>25112</NORAD_CAT_ID><ELEMENT_SET_NO>999</ELEMENT_SET_NO><REV_AT_EPOCH>42946</REV_AT_EPOCH><BSTAR>.15864E-2</BSTAR><MEAN_MOTION_DOT>.5498E-4</MEAN_MOTION_DOT><MEAN_MOTION_DDOT>0</MEAN_MOTION_DDOT></tleParameters></data></segment></body></omm>
<omm id="CCSDS_OMM_VERS" version="2.0">
<header><CREATION_DATE/><ORIGINATOR/></header><body><segment><metadata><OBJECT_NAME>ORBCOMM FM10</OBJECT_NAME><OBJECT_ID>1997-084B</OBJECT_ID><CENTER_NAME>EARTH</CENTER_NAME><REF_FRAME>TEME</REF_FRAME><TIME_SYSTEM>UTC</TIME_SYSTEM><MEAN_ELEMENT_THEORY>SGP4</MEAN_ELEMENT_THEORY></metadata><data><meanElements><EPOCH>2025-03-26T21:56:59.172864</EPOCH><MEAN_MOTION>14.45208386</MEAN_MOTION><ECCENTRICITY>.0002863</ECCENTRICITY><INCLINATION>45.0148</INCLINATION><RA_OF_ASC_NODE>44.9484</RA_OF_ASC_NODE><ARG_OF_PERICENTER>169.4670</ARG_OF_PERICENTER><MEAN_ANOMALY>190.6242</MEAN_ANOMALY></meanElements><tleParameters><EPHEMERIS_TYPE>0</EPHEMERIS_TYPE><CLASSIFICATION_TYPE>U</CLASSIFICATION_TYPE><NORAD_CAT_ID>25113</NORAD_CAT_ID><ELEMENT_SET_NO>999</ELEMENT_SET_NO><REV_AT_EPOCH>60461</REV_AT_EPOCH><BSTAR>.15346E-2</BSTAR><MEAN_MOTION_DOT>.5289E-4</MEAN_MOTION_DOT><MEAN_MOTION_DDOT>0</MEAN_MOTION_DDOT></tleParameters></data></segment></body></omm>
<omm id="CCSDS_OMM_VERS" version="2.0">
<header><CREATION_DATE/><ORIGINATOR/></header><body><segment><metadata><OBJECT_NAME>ORBCOMM FM11</OBJECT_NAME><OBJECT_ID>1997-084C</OBJECT_ID><CENTER_NAME>EARTH</CENTER_NAME><REF_FRAME>TEME</REF_FRAME><TIME_SYSTEM>UTC</TIME_SYSTEM><MEAN_ELEMENT_THEORY>SGP4</MEAN_ELEMENT_THEORY></metadata><data><meanElements><EPOCH>2025-03-27T02:41:52.808064</EPOCH><MEAN_MOTION>14.44964664</MEAN_MOTION><ECCENTRICITY>.0003731</ECCENTRICITY><INCLINATION>45.0135</INCLINATION><RA_OF_ASC_NODE>44.4846</RA_OF_ASC_NODE><ARG_OF_PERICENTER>170.8323</ARG_OF_PERICENTER><MEAN_ANOMALY>189.2597</MEAN_ANOMALY></meanElements><tleParameters><EPHEMERIS_TYPE>0</EPHEMERIS_TYPE><CLASSIFICATION_TYPE>U</CLASSIFICATION_TYPE><NORAD_CAT_ID>25114</NORAD_CAT_ID><ELEMENT_SET_NO>999</ELEMENT_SET_NO><REV_AT_EPOCH>42963</REV_AT_EPOCH><BSTAR>.15821E-2</BSTAR><MEAN_MOTION_DOT>.543E-4</MEAN_MOTION_DOT><MEAN_MOTION_DDOT>0</MEAN_MOTION_DDOT></tleParameters></data></segment></body></omm>
<omm id="CCSDS_OMM_VERS" version="2.0">
<header><CREATION_DATE/><ORIGINATOR/></header><body><segment><metadata><OBJECT_NAME>ORBCOMM FM12</OBJECT_NAME><OBJECT_ID>1997-084D</OBJECT_ID><CENTER_NAME>EARTH</CENTER_NAME><REF_FRAME>TEME</REF_FRAME><TIME_SYSTEM>UTC</TIME_SYSTEM><MEAN_ELEMENT_THEORY>SGP4</MEAN_ELEMENT_THEORY></metadata><data><meanElements><EPOCH>2025-03-27T03:29:12.856416</EPOCH><MEAN_MOTION>14.44990965</MEAN_MOTION><ECCENTRICITY>.0002711</ECCENTRICITY><INCLINATION>45.0143</INCLINATION><RA_OF_ASC_NODE>44.0863</RA_OF_ASC_NODE><ARG_OF_PERICENTER>171.7748</ARG_OF_PERICENTER><MEAN_ANOMALY>188.3148</MEAN_ANOMALY></meanElements><tleParameters><EPHEMERIS_TYPE>0</EPHEMERIS_TYPE><CLASSIFICATION_TYPE>U</CLASSIFICATION_TYPE><NORAD_CAT_ID>25115</NORAD_CAT_ID><ELEMENT_SET_NO>999</ELEMENT_SET_NO><REV_AT_EPOCH>42964</REV_AT_EPOCH><BSTAR>.15351E-2</BSTAR><MEAN_MOTION_DOT>.5267E-4</MEAN_MOTION_DOT><MEAN_MOTION_DDOT>0</MEAN_MOTION_DDOT></tleParameters></data></segment></body></omm>
<omm id="CCSDS_OMM_VERS" version="2.0">
<header><CREATION_DATE/><ORIGINATOR/></header><body><segment><metadata><OBJECT_NAME>ORBCOMM FM09</OBJECT_NAME><OBJECT_ID>1997-084E</OBJECT_ID><CENTER_NAME>EARTH</CENTER_NAME><REF_FRAME>TEME</REF_FRAME><TIME_SYSTEM>UTC</TIME_SYSTEM><MEAN_ELEMENT_THEORY>SGP4</MEAN_ELEMENT_THEORY></metadata><data><meanElements><EPOCH>2025-03-26T23:07:14.115648</EPOCH><MEAN_MOTION>14.44875683</MEAN_MOTION><ECCENTRICITY>.0003885</ECCENTRICITY><INCLINATION>45.0148</INCLINATION><RA_OF_ASC_NODE>45.8120</RA_OF_ASC_NODE><ARG_OF_PERICENTER>147.8664</ARG_OF_PERICENTER><MEAN_ANOMALY>212.2424</MEAN_ANOMALY></meanElements><tleParameters><EPHEMERIS_TYPE>0</EPHEMERIS_TYPE><CLASSIFICATION_TYPE>U</CLASSIFICATION_TYPE><NORAD_CAT_ID>25116</NORAD_CAT_ID><ELEMENT_SET_NO>999</ELEMENT_SET_NO><REV_AT_EPOCH>42958</REV_AT_EPOCH><BSTAR>.13959E-2</BSTAR><MEAN_MOTION_DOT>.4764E-4</MEAN_MOTION_DOT><MEAN_MOTION_DDOT>0</MEAN_MOTION_DDOT></tleParameters></data></segment></body></omm>

</ndm>
