ORBCOMM-X               
1 21576U 91050C   25085.66702968  .00001155  00000+0  35643-3 0  9995
2 21576  98.3507 153.9235 0004828  81.8660 278.3078 14.43166137770212
ORBCOMM FM01            
1 23545U 95017A   25085.80130468  .00016050  00000+0  17225-2 0  9991
2 23545  69.9625 279.3917 0000981 160.6771 199.4420 14.88665412600248
ORBCOMM FM02            
1 23546U 95017B   25085.85126604  .00023459  00000+0  24776-2 0  9994
2 23546  69.9651 298.8779 0001948 118.7090 241.4260 14.89201984599891
ORBCOMM FM08            
1 25112U 97084A   25085.87636017  .00005498  00000+0  15864-2 0  9998
2 25112  45.0139  42.8936 0005357 208.0437 152.0127 14.45420159429469
ORBCOMM FM10            
1 25113U 97084B   25085.91457376  .00005289  00000+0  15346-2 0  9996
2 25113  45.0148  44.9484 0002863 169.4670 190.6242 14.45208386604613
ORBCOMM FM11            
1 25114U 97084C   25086.11241676  .00005430  00000+0  15821-2 0  9990
2 25114  45.0135  44.4846 0003731 170.8323 189.2597 14.44964664429634
ORBCOMM FM12            
1 25115U 97084D   25086.14528769  .00005267  00000+0  15351-2 0  9991
2 25115  45.0143  44.0863 0002711 171.7748 188.3148 14.44990965429643
ORBCOMM FM09            
1 25116U 97084E   25085.96335782  .00004764  00000+0  13959-2 0  9995
2 25116  45.0148  45.8120 0003885 147.8664 212.2424 14.44875683429584
